COSMOS 1933             
1 18958U 88020A   26043.60713333  .00003488  00000+0  17130-3 0  9997
2 18958  82.5117 275.7289 0002874 303.4528  56.6430 15.17762709 46428
SL-3 R/B                
1 19046U 88032B   26043.58067283  .00006023  00000+0  28400-3 0  9992
2 19046  97.5149  26.9349 0025009 325.4109  34.5498 15.19583647 48295
SL-16 R/B               
1 19120U 88039B   26043.47279972  .00000115  00000+0  77183-4 0  9999
2 19120  71.0146 121.8720 0021210  12.6622 347.5031 14.19612035954801
COSMOS 1953             
1 19210U 88050A   26043.41745039  .00012075  00000+0  43981-3 0  9994
2 19210  82.5089 183.6478 0010848 208.4876 151.5772 15.28021413 33922
SL-8 R/B                
1 19257U 88053B   26043.49052843  .00000262  00000+0  93288-4 0  9991
2 19257  74.0485 158.9108 0020553 342.7324  89.5646 14.38900602972971
COSMOS 1975             
1 19573U 88093A   26043.24774688  .00010209  00000+0  37628-3 0  9994
2 19573  82.5218 143.2089 0010348 258.3250 101.6828 15.27626334 15529
SL-14 R/B               
1 19574U 88093B   26043.55003624  .00000479  00000+0  52306-4 0  9993
2 19574  82.5278  65.6498 0022123 119.3413 357.1088 14.85627253997303
SL-16 R/B               
1 19650U 88102B   26043.47633218  .00000305  00000+0  17819-3 0  9995
2 19650  70.9982 204.5440 0012627  42.8694 317.3411 14.16149533923324
INTERCOSMOS 24          
1 20261U 89080A   26043.22680348  .00000541  00000+0  15659-3 0  9992
2 20261  82.6062 120.9789 1187824 351.9576   6.3851 12.59522190663598
SL-14 R/B               
1 20262U 89080C   26043.43003893  .00000496  00000+0  14985-3 0  9990
2 20262  82.5949 189.4004 1229526 242.5056 104.5890 12.50461886656991
DELTA 1 R/B             
1 20323U 89089B   26043.58226549  .00000372  00000+0  10072-3 0  9994
2 20323  97.0724 255.0111 0068513 200.9246 158.9146 14.50642007892093
ARIANE 40 R/B           
1 20443U 90005H   26043.58811532  .00000271  00000+0  99666-4 0  9994
2 20443  98.3141 104.9907 0008890 281.0798  78.9390 14.39853446889199
